NORAD_CAT_ID,OBJECT_NAME,OBJECT_TYPE,EPOCH,MEAN_MOTION,ECCENTRICITY,INCLINATION,RA_OF_ASC_NODE,ARG_OF_PERICENTER,MEAN_ANOMALY,BSTAR,MEAN_MOTION_DOT,MEAN_MOTION_DDOT,TLE_LINE0,TLE_LINE1,TLE_LINE2,SEMIMAJOR_AXIS,PERIOD,APOGEE,PERIGEE,DECAYED
52656.0,STARLINK-4004,PAYLOAD,2023-02-22 12:20:11,15.08851051,0.0001367,53.2164,102.3828,85.2471,274.8677,5.8787e-05,6.48e-06,0.0,0 STARLINK-4004,1 52656U 22053A   23053.51401812  .00000648  00000-0  58787-4 0  9998,2 52656  53.2164 102.3828 0001367  85.2471 274.8677 15.08851051 43366,6917.847,95.437,540.657,538.766,0.0
52656.0,STARLINK-4004,PAYLOAD,2023-02-22 15:30:56,15.08857391,0.0001417,53.2167,101.7884,86.9342,273.1812,0.00011581,1.556e-05,0.0,0 STARLINK-4004,1 52656U 22053A   23053.64649179  .00001556  00000-0  11581-3 0  9991,2 52656  53.2167 101.7884 0001417  86.9342 273.1812 15.08857391 43383,6917.827,95.436,540.672,538.712,0.0
52656.0,STARLINK-4004,PAYLOAD,2023-02-22 20:17:08,15.08828255,0.0001203,53.2182,100.8984,94.5617,265.5512,-5.8272e-05,-1.215e-05,0.0,0 STARLINK-4004,1 52656U 22053A   23053.84523312 -.00001215  00000-0 -58272-4 0  9996,2 52656  53.2182 100.8984 0001203  94.5617 265.5512 15.08828255 43417,6917.916,95.438,540.614,538.949,0.0
52656.0,STARLINK-4004,PAYLOAD,2023-02-23 02:38:40,15.08824734,0.0001049,53.2179,99.7088,89.355,270.7562,2.4136e-05,9.6e-07,0.0,0 STARLINK-4004,1 52656U 22053A   23054.11019544  .00000096  00000-0  24136-4 0  9990,2 52656  53.2179  99.7088 0001049  89.3550 270.7562 15.08824734 43455,6917.927,95.439,540.518,539.066,0.0
52656.0,STARLINK-4004,PAYLOAD,2023-02-23 09:00:12,15.08838501,0.0001347,53.2167,98.5181,86.6866,273.4281,4.4439e-05,4.19e-06,0.0,0 STARLINK-4004,1 52656U 22053A   23054.37514552  .00000419  00000-0  44439-4 0  9994,2 52656  53.2167  98.5181 0001347  86.6866 273.4281 15.08838501 43493,6917.885,95.438,540.682,538.818,0.0
52656.0,STARLINK-4004,PAYLOAD,2023-02-23 12:10:58,15.08843842,0.0001387,53.2167,97.9231,86.958,273.1571,0.00012666,1.729e-05,0.0,0 STARLINK-4004,1 52656U 22053A   23054.50762326  .00001729  00000-0  12666-3 0  9994,2 52656  53.2167  97.9231 0001387  86.9580 273.1571 15.08843842 43518,6917.869,95.437,540.693,538.774,0.0
52656.0,STARLINK-4004,PAYLOAD,2023-02-23 20:07:54,15.08836283,0.0001422,53.2157,96.4365,82.2765,277.8388,3.2383e-05,2.27e-06,0.0,0 STARLINK-4004,1 52656U 22053A   23054.83882728  .00000227  00000-0  32383-4 0  9990,2 52656  53.2157  96.4365 0001422  82.2765 277.8388 15.08836283 43566,6917.892,95.438,540.74,538.773,0.0
52656.0,STARLINK-4004,PAYLOAD,2023-02-24 07:15:36,15.08840892,0.0001402,53.2162,94.3545,80.1929,279.9221,0.00016518,2.342e-05,0.0,0 STARLINK-4004,1 52656U 22053A   23055.30250657  .00002342  00000-0  16518-3 0  9994,2 52656  53.2162  94.3545 0001402  80.1929 279.9221 15.08840892 43634,6917.878,95.437,540.713,538.773,0.0
52656.0,STARLINK-4004,PAYLOAD,2023-02-24 19:58:41,15.08834608,0.0001057,53.2177,91.9752,99.6525,260.4586,-1.496e-05,-5.26e-06,0.0,0 STARLINK-4004,1 52656U 22053A   23055.83242714 -.00000526  00000-0 -14960-4 0  9991,2 52656  53.2177  91.9752 0001057  99.6525 260.4586 15.08834608 43712,6917.897,95.438,540.493,539.031,0.0
52656.0,STARLINK-4004,PAYLOAD,2023-02-25 11:52:33,15.08827371,0.0001188,53.2177,89.0067,57.5265,302.5841,-1.9863e-05,-6.04e-06,0.0,0 STARLINK-4004,1 52656U 22053A   23056.49483733 -.00000604  00000-0 -19863-4 0  9996,2 52656  53.2177  89.0067 0001188  57.5265 302.5841 15.08827371 43810,6917.919,95.438,540.606,538.962,0.0
52656.0,STARLINK-4004,PAYLOAD,2023-02-25 13:27:57,15.08817803,0.0001233,53.2162,88.7045,91.6883,268.425,-0.00024208,-4.136e-05,0.0,0 STARLINK-4004,1 52656U 22053A   23056.56108108 -.00004136  00000-0 -24208-3 0  9996,2 52656  53.2162  88.7045 0001233  91.6883 268.4250 15.08817803 43826,6917.948,95.439,540.666,538.96,0.0
52656.0,STARLINK-4004,PAYLOAD,2023-02-26 11:43:21,15.08849999,0.0001084,53.2163,84.5416,95.3033,264.8082,0.0013474,0.00021227,0.0,0 STARLINK-4004,1 52656U 22053A   23057.48844416  .00021227  00000-0  13474-2 0  9997,2 52656  53.2163  84.5416 0001084  95.3033 264.8082 15.08849999 43964,6917.85,95.437,540.465,538.965,0.0
52656.0,STARLINK-4004,PAYLOAD,2023-02-26 13:18:44,15.08853014,0.0001024,53.2163,84.2443,92.3298,267.7811,0.0016588,0.0002622,0.0,0 STARLINK-4004,1 52656U 22053A   23057.55468422  .00026220  00000-0  16588-2 0  9991,2 52656  53.2163  84.2443 0001024  92.3298 267.7811 15.08853014 43971,6917.841,95.437,540.414,538.997,0.0
52656.0,STARLINK-4004,PAYLOAD,2023-02-27 02:01:49,15.0885437,0.0001184,53.2167,81.8658,97.6212,262.4915,0.00075311,0.00011723,0.0,0 STARLINK-4004,1 52656U 22053A   23058.08460182  .00011723  00000-0  75311-3 0  9997,2 52656  53.2167  81.8658 0001184  97.6212 262.4915 15.08854370 44050,6917.836,95.437,540.521,538.882,0.0
52656.0,STARLINK-4004,PAYLOAD,2023-02-27 11:34:07,15.08889021,0.0001202,53.2168,80.0813,100.2099,259.9029,0.0017229,0.00027275,0.0,0 STARLINK-4004,1 52656U 22053A   23058.48203119  .00027275  00000-0  17229-2 0  9998,2 52656  53.2168  80.0813 0001202 100.2099 259.9029 15.08889021 44115,6917.731,95.434,540.427,538.764,0.0
52656.0,STARLINK-4004,PAYLOAD,2023-02-27 17:55:40,15.08896961,0.0001571,53.2165,78.8926,81.4997,278.6173,0.0033491,0.00053501,0.0,0 STARLINK-4004,1 52656U 22053A   23058.74699114  .00053501  00000-0  33491-2 0  9991,2 52656  53.2165  78.8926 0001571  81.4997 278.6173 15.08896961 44151,6917.706,95.434,540.658,538.485,0.0
52656.0,STARLINK-4004,PAYLOAD,2023-02-28 00:17:12,15.08863269,0.0001494,53.2168,77.7031,97.2883,262.8279,0.0010094,0.00015823,0.0,0 STARLINK-4004,1 52656U 22053A   23059.01195108  .00015823  00000-0  10094-2 0  9995,2 52656  53.2168  77.7031 0001494  97.2883 262.8279 15.08863269 44193,6917.809,95.436,540.708,538.641,0.0
52656.0,STARLINK-4004,PAYLOAD,2023-02-28 11:24:54,15.0885744,0.00011,53.2169,75.6218,75.2348,284.8766,0.0015847,0.00025034,0.0,0 STARLINK-4004,1 52656U 22053A   23059.47563000  .00025034  00000-0  15847-2 0  9991,2 52656  53.2169  75.6218 0001100  75.2348 284.8766 15.08857440 44261,6917.827,95.436,540.453,538.931,0.0
52656.0,STARLINK-4004,PAYLOAD,2023-02-28 17:46:27,15.08830651,0.0001629,53.2174,74.4315,75.1705,284.9468,0.00058319,9.003e-05,0.0,0 STARLINK-4004,1 52656U 22053A   23059.74059910  .00009003  00000-0  58319-3 0  9991,2 52656  53.2174  74.4315 0001629  75.1705 284.9468 15.08830651 44304,6917.909,95.438,540.901,538.647,0.0
52656.0,STARLINK-4004,PAYLOAD,2023-03-01 01:43:24,15.08827716,0.0002231,53.2165,72.9452,76.7994,283.3247,0.00068373,0.00010607,0.0,0 STARLINK-4004,1 52656U 22053A   23060.07180641  .00010607  00000-0  68373-3 0  9998,2 52656  53.2165  72.9452 0002231  76.7994 283.3247 15.08827716 44357,6917.918,95.438,541.326,538.24,0.0
52656.0,STARLINK-4004,PAYLOAD,2023-03-01 08:04:57,15.08815467,0.0001792,53.2171,71.7568,81.0602,279.0593,0.0009225,0.00014414,0.0,0 STARLINK-4004,1 52656U 22053A   23060.33677273  .00014414  00000-0  92250-3 0  9990,2 52656  53.2171  71.7568 0001792  81.0602 279.0593 15.08815467 44395,6917.955,95.439,541.06,538.581,0.0
52656.0,STARLINK-4004,PAYLOAD,2023-03-01 17:37:16,15.08836877,0.0001659,53.2164,69.9727,81.4836,278.6344,0.0013882,0.00021872,0.0,0 STARLINK-4004,1 52656U 22053A   23060.73421432  .00021872  00000-0  13882-2 0  9997,2 52656  53.2164  69.9727 0001659  81.4836 278.6344 15.08836877 44452,6917.89,95.438,540.903,538.607,0.0
52656.0,STARLINK-4004,PAYLOAD,2023-03-01 23:58:48,15.08857151,0.0001435,53.2164,68.7823,82.7917,277.3239,0.0016878,0.00026688,0.0,0 STARLINK-4004,1 52656U 22053A   23060.99917131  .00026688  00000-0  16878-2 0  9999,2 52656  53.2164  68.7823 0001435  82.7917 277.3239 15.08857151 44493,6917.828,95.436,540.686,538.7,0.0
52656.0,STARLINK-4004,PAYLOAD,2023-03-02 17:28:02,15.08859185,0.0001333,53.2174,65.5106,93.0424,267.0721,0.00024606,3.632e-05,0.0,0 STARLINK-4004,1 52656U 22053A   23061.72780096  .00003632  00000-0  24606-3 0  9992,2 52656  53.2174  65.5106 0001333  93.0424 267.0721 15.08859185 44602,6917.822,95.436,540.609,538.765,0.0
52656.0,STARLINK-4004,PAYLOAD,2023-03-03 06:11:06,15.08880132,0.0001603,53.2165,63.1316,95.0283,265.0892,0.0022058,0.00035031,0.0,0 STARLINK-4004,1 52656U 22053A   23062.25771416  .00035031  00000-0  22058-2 0  9993,2 52656  53.2165  63.1316 0001603  95.0283 265.0892 15.08880132 44685,6917.758,95.435,540.732,538.514,0.0
52656.0,STARLINK-4004,PAYLOAD,2023-03-03 12:32:39,15.08822826,9.11e-05,53.2165,61.9418,91.2648,268.8448,-0.00032955,-5.526e-05,0.0,0 STARLINK-4004,1 52656U 22053A   23062.52267826 -.00005526  00000-0 -32955-3 0  9994,2 52656  53.2165  61.9418 0000911  91.2648 268.8448 15.08822826 44727,6917.933,95.439,540.428,539.168,0.0
52656.0,STARLINK-4004,PAYLOAD,2023-03-03 17:18:49,15.08799986,0.0001456,53.2175,61.0495,98.7801,261.3356,-0.00067517,-0.00011005,0.0,0 STARLINK-4004,1 52656U 22053A   23062.72141024 -.00011005  00000-0 -67517-3 0  9998,2 52656  53.2175  61.0495 0001456  98.7801 261.3356 15.08799986 44751,6918.003,95.44,540.875,538.86,0.0
52656.0,STARLINK-4004,PAYLOAD,2023-03-04 09:12:42,15.0885945,0.0001651,53.2172,58.0772,72.4835,287.6337,0.0044381,0.00071095,0.0,0 STARLINK-4004,1 52656U 22053A   23063.38381952  .00071095  00000-0  44381-2 0  9993,2 52656  53.2172  58.0772 0001651  72.4835 287.6337 15.08859450 44859,6917.821,95.436,540.828,538.544,0.0
52656.0,STARLINK-4004,PAYLOAD,2023-03-04 10:48:04,15.08858355,0.0001445,53.2171,57.7785,95.4214,264.6943,0.0026573,0.00042278,0.0,0 STARLINK-4004,1 52656U 22053A   23063.45005730  .00042278  00000-0  26573-2 0  9992,2 52656  53.2171  57.7785 0001445  95.4214 264.6943 15.08858355 44867,6917.824,95.436,540.689,538.69,0.0
52656.0,STARLINK-4004,PAYLOAD,2023-03-04 17:09:37,15.08861243,0.0001583,53.2182,56.5904,75.6073,284.5095,0.0018763,0.00029717,0.0,0 STARLINK-4004,1 52656U 22053A   23063.71501658  .00029717  00000-0  18763-2 0  9996,2 52656  53.2182  56.5904 0001583  75.6073 284.5095 15.08861243 44909,6917.815,95.436,540.776,538.585,0.0
